CCSDS_OMM_VERS,COMMENT,CREATION_DATE,ORIGINATOR,OBJECT_NAME,OBJECT_ID,CENTER_NAME,REF_FRAME,TIME_SYSTEM,MEAN_ELEMENT_THEORY,EPOCH,MEAN_MOTION,ECCENTRICITY,INCLINATION,RA_OF_ASC_NODE,ARG_OF_PERICENTER,MEAN_ANOMALY,EPHEMERIS_TYPE,CLASSIFICATION_TYPE,NORAD_CAT_ID,ELEMENT_SET_NO,REV_AT_EPOCH,BSTAR,MEAN_MOTION_DOT,MEAN_MOTION_DDOT,SEMIMAJOR_AXIS,PERIOD,APOAPSIS,PERIAPSIS,OBJECT_TYPE,RCS_SIZE,COUNTRY_CODE,LAUNCH_DATE,SITE,DECAY_DATE,FILE,GP_ID,TLE_LINE0,TLE_LINE1,TLE_LINE2
2,GENERATED VIA SPACE-TRACK.ORG API,2012-12-31T23:29:18,18 SPCS,GALILEO-FM3,2012-055A,EARTH,TEME,UTC,SGP4,2012-12-31T21:33:12.211199,1.70473514,7.39e-05,55.2989,237.3143,258.6126,101.4778,0,U,38857,999,137,0.0001,5.3e-07,0,29600.395,844.705,23224.447,23220.072,PAYLOAD,LARGE,ESA,2012-10-12,FRGUI,,1414352,91804193,0 GALILEO-FM3,1 38857U 12055A   12366.89805800  .00000053  00000-0  10000-3 0  9992,2 38857 055.2989 237.3143 0000739 258.6126 101.4778 01.70473514  1374
2,GENERATED VIA SPACE-TRACK.ORG API,2013-01-03T13:54:48,18 SPCS,GALILEO-FM3,2012-055A,EARTH,TEME,UTC,SGP4,2013-01-03T05:51:55.310687,1.70475377,6.11e-05,55.2992,237.2423,267.4682,92.6181,0,U,38857,999,141,0.0001,0.0,0,29600.179,844.696,23223.853,23220.236,PAYLOAD,LARGE,ESA,2012-10-12,FRGUI,,1415597,91825699,0 GALILEO-FM3,1 38857U 12055A   13003.24439017  .00000000  00000-0  10000-3 0  9995,2 38857 055.2992 237.2423 0000611 267.4682 092.6181 01.70475377  1415
2,GENERATED VIA SPACE-TRACK.ORG API,2013-01-03T23:28:19,18 SPCS,GALILEO-FM3,2012-055A,EARTH,TEME,UTC,SGP4,2013-01-03T19:56:35.312064,1.70473541,6.59e-05,55.2973,237.2326,261.0988,98.9795,0,U,38857,999,142,0.0001,5.2e-07,0,29600.392,844.705,23224.207,23220.306,PAYLOAD,LARGE,ESA,2012-10-12,FRGUI,,1415973,91829905,0 GALILEO-FM3,1 38857U 12055A   13003.83096426  .00000052  00000-0  10000-3 0  9990,2 38857 055.2973 237.2326 0000659 261.0988 098.9795 01.70473541  1429
2,GENERATED VIA SPACE-TRACK.ORG API,2013-01-06T15:31:39,18 SPCS,GALILEO-FM3,2012-055A,EARTH,TEME,UTC,SGP4,2013-01-06T04:15:19.207296,1.70473577,5.72e-05,55.2965,237.1676,256.9429,103.1366,0,U,38857,999,146,0.0001,5.6e-07,0,29600.387,844.705,23223.946,23220.559,PAYLOAD,LARGE,ESA,2012-10-12,FRGUI,,1417304,91851877,0 GALILEO-FM3,1 38857U 12055A   13006.17730564  .00000056  00000-0  10000-3 0  9992,2 38857 055.2965 237.1676 0000572 256.9429 103.1366 01.70473577  1460
2,GENERATED VIA SPACE-TRACK.ORG API,2013-01-08T15:31:48,18 SPCS,GALILEO-FM3,2012-055A,EARTH,TEME,UTC,SGP4,2013-01-08T12:34:03.969120,1.70473597,5.62e-05,55.2954,237.1019,258.4655,101.6207,0,U,38857,999,150,0.0001,6.1e-07,0,29600.385,844.705,23223.914,23220.587,PAYLOAD,LARGE,ESA,2012-10-12,FRGUI,,1418443,91867643,0 GALILEO-FM3,1 38857U 12055A   13008.52365705  .00000061  00000-0  10000-3 0  9990,2 38857 055.2954 237.1019 0000562 258.4655 101.6207 01.70473597  1500
2,GENERATED VIA SPACE-TRACK.ORG API,2013-01-10T23:26:11,18 SPCS,GALILEO-FM3,2012-055A,EARTH,TEME,UTC,SGP4,2013-01-10T20:52:48.047520,1.70473565,4.59e-05,55.2945,237.0367,250.8362,109.2481,0,U,38857,999,154,0.0001,5.4e-07,0,29600.389,844.705,23223.612,23220.895,PAYLOAD,LARGE,ESA,2012-10-12,FRGUI,,1419905,91886254,0 GALILEO-FM3,1 38857U 12055A   13010.87000055  .00000054  00000-0  10000-3 0  9997,2 38857 055.2945 237.0367 0000459 250.8362 109.2481 01.70473565  1548
2,GENERATED VIA SPACE-TRACK.ORG API,2013-01-13T15:36:55,18 SPCS,GALILEO-FM3,2012-055A,EARTH,TEME,UTC,SGP4,2013-01-13T05:11:30.895583,1.70473562,3.41e-05,55.2927,236.9697,225.9932,134.0831,0,U,38857,999,158,0.0001,3.7e-07,0,29600.389,844.705,23223.264,23221.245,PAYLOAD,LARGE,ESA,2012-10-12,FRGUI,,1421236,91909317,0 GALILEO-FM3,1 38857U 12055A   13013.21632981  .00000037  00000-0  10000-3 0  9998,2 38857 055.2927 236.9697 0000341 225.9932 134.0831 01.70473562  1584
2,GENERATED VIA SPACE-TRACK.ORG API,2013-01-17T10:29:53,18 SPCS,GALILEO-FM3,2012-055A,EARTH,TEME,UTC,SGP4,2013-01-16T17:39:34.321824,1.70473536,3.29e-05,55.291,236.8715,222.5578,137.4993,0,U,38857,999,164,0.0001,3e-07,0,29600.392,844.705,23223.231,23221.283,PAYLOAD,LARGE,ESA,2012-10-12,FRGUI,,1423362,91935522,0 GALILEO-FM3,1 38857U 12055A   13016.73581391  .00000030  00000-0  10000-3 0  9999,2 38857 055.2910 236.8715 0000329 222.5578 137.4993 01.70473536  1645
2,GENERATED VIA SPACE-TRACK.ORG API,2013-01-19T15:33:18,18 SPCS,GALILEO-FM3,2012-055A,EARTH,TEME,UTC,SGP4,2013-01-19T01:58:18.966143,1.70473482,2.91e-05,55.2915,236.806,204.5298,155.5294,0,U,38857,999,168,0.0001,4.3e-07,0,29600.398,844.706,23223.125,23221.402,PAYLOAD,LARGE,ESA,2012-10-12,FRGUI,,1425055,91961022,0 GALILEO-FM3,1 38857U 12055A   13019.08216396  .00000043  00000-0  10000-3 0  9994,2 38857 055.2915 236.8060 0000291 204.5298 155.5294 01.70473482  1689
2,GENERATED VIA SPACE-TRACK.ORG API,2013-01-22T07:34:13,18 SPCS,GALILEO-FM3,2012-055A,EARTH,TEME,UTC,SGP4,2013-01-22T00:21:45.207648,1.70473479,3.09e-05,55.2899,236.7237,185.4015,174.6674,0,U,38857,999,173,0.0001,6.2e-07,0,29600.399,844.706,23223.178,23221.349,PAYLOAD,LARGE,ESA,2012-10-12,FRGUI,,1426092,91982781,0 GALILEO-FM3,1 38857U 12055A   13022.01510657  .00000062  00000-0  10000-3 0  9999,2 38857 055.2899 236.7237 0000309 185.4015 174.6674 01.70473479  1735
2,GENERATED VIA SPACE-TRACK.ORG API,2013-01-24T23:26:47,18 SPCS,GALILEO-FM3,2012-055A,EARTH,TEME,UTC,SGP4,2013-01-24T22:45:10.582559,1.70473491,3.06e-05,55.2883,236.6414,172.5433,187.529,0,U,38857,999,178,0.0001,7.2e-07,0,29600.397,844.706,23223.168,23221.357,PAYLOAD,LARGE,ESA,2012-10-12,FRGUI,,1427898,92005548,0 GALILEO-FM3,1 38857U 12055A   13024.94803915  .00000072  00000-0  10000-3 0  9996,2 38857 055.2883 236.6414 0000306 172.5433 187.5290 01.70473491  1788
2,GENERATED VIA SPACE-TRACK.ORG API,2013-01-27T23:33:52,18 SPCS,GALILEO-FM3,2012-055A,EARTH,TEME,UTC,SGP4,2013-01-27T21:08:33.755136,1.70473488,2.85e-05,55.2871,236.5594,166.7647,193.2948,0,U,38857,999,183,0.0001,7.3e-07,0,29600.398,844.706,23223.106,23221.419,PAYLOAD,LARGE,ESA,2012-10-12,FRGUI,,1429593,92032579,0 GALILEO-FM3,1 38857U 12055A   13027.88094624  .00000073  00000-0  10000-3 0  9992,2 38857 055.2871 236.5594 0000285 166.7647 193.2948 01.70473488  1837
2,GENERATED VIA SPACE-TRACK.ORG API,2013-01-30T23:28:14,18 SPCS,GALILEO-FM3,2012-055A,EARTH,TEME,UTC,SGP4,2013-01-30T19:31:56.109503,1.70473512,3.15e-05,55.2858,236.4777,166.1542,193.888,0,U,38857,999,188,0.0001,6.9e-07,0,29600.395,844.706,23223.192,23221.328,PAYLOAD,LARGE,ESA,2012-10-12,FRGUI,,1431389,92057526,0 GALILEO-FM3,1 38857U 12055A   13030.81384386  .00000069  00000-0  10000-3 0  9991,2 38857 055.2858 236.4777 0000315 166.1542 193.8880 01.70473512  1880
2,GENERATED VIA SPACE-TRACK.ORG API,2013-02-02T23:30:41,18 SPCS,GALILEO-FM3,2012-055A,EARTH,TEME,UTC,SGP4,2013-02-02T17:55:20.006975,1.70473548,3.05e-05,55.2845,236.3957,163.6998,196.3368,0,U,38857,999,193,0.0001,7e-07,0,29600.391,844.705,23223.159,23221.353,PAYLOAD,LARGE,ESA,2012-10-12,FRGUI,,1433014,92083640,0 GALILEO-FM3,1 38857U 12055A   13033.74675934  .00000070  00000-0  10000-3 0  9990,2 38857 055.2845 236.3957 0000305 163.6998 196.3368 01.70473548  1935
2,GENERATED VIA SPACE-TRACK.ORG API,2013-02-05T15:33:18,18 SPCS,GALILEO-FM3,2012-055A,EARTH,TEME,UTC,SGP4,2013-02-05T02:14:04.375680,1.70473571,2.79e-05,55.2838,236.3302,163.2184,196.822,0,U,38857,999,197,0.0001,7.1e-07,0,29600.388,844.705,23223.079,23221.427,PAYLOAD,LARGE,ESA,2012-10-12,FRGUI,,1434403,92106096,0 GALILEO-FM3,1 38857U 12055A   13036.09310620  .00000071  00000-0  10000-3 0  9990,2 38857 055.2838 236.3302 0000279 163.2184 196.8220 01.70473571  1976
2,GENERATED VIA SPACE-TRACK.ORG API,2013-02-07T14:36:30,18 SPCS,GALILEO-FM3,2012-055A,EARTH,TEME,UTC,SGP4,2013-02-07T10:32:47.722271,1.70473542,3.1e-05,55.283,236.2653,170.5792,189.4544,0,U,38857,999,201,0.0001,5.9e-07,0,29600.391,844.705,23223.174,23221.339,PAYLOAD,LARGE,ESA,2012-10-12,FRGUI,,1435711,92122211,0 GALILEO-FM3,1 38857U 12055A   13038.43944123  .00000059  00000-0  10000-3 0  9997,2 38857 055.2830 236.2653 0000310 170.5792 189.4544 01.70473542  2019
2,GENERATED VIA SPACE-TRACK.ORG API,2013-02-09T23:34:07,18 SPCS,GALILEO-FM3,2012-055A,EARTH,TEME,UTC,SGP4,2013-02-09T18:51:29.638079,1.70473489,3.67e-05,55.2824,236.2002,156.4713,203.5449,0,U,38857,999,205,0.0001,3.8e-07,0,29600.398,844.706,23223.349,23221.176,PAYLOAD,LARGE,ESA,2012-10-12,FRGUI,,1437054,92142617,0 GALILEO-FM3,1 38857U 12055A   13040.78575970  .00000038  00000-0  10000-3 0  9995,2 38857 055.2824 236.2002 0000367 156.4713 203.5449 01.70473489  2054
2,GENERATED VIA SPACE-TRACK.ORG API,2013-02-12T23:33:50,18 SPCS,GALILEO-FM3,2012-055A,EARTH,TEME,UTC,SGP4,2013-02-12T17:14:52.357920,1.70473463,4.14e-05,55.2809,236.1185,159.0689,200.9295,0,U,38857,999,210,0.0001,2.7e-07,0,29600.401,844.706,23223.491,23221.04,PAYLOAD,LARGE,ESA,2012-10-12,FRGUI,,1438644,92167859,0 GALILEO-FM3,1 38857U 12055A   13043.71866155  .00000027  00000-0  10000-3 0  9997,2 38857 055.2809 236.1185 0000414 159.0689 200.9295 01.70473463  2100
2,GENERATED VIA SPACE-TRACK.ORG API,2013-02-15T05:21:12,18 SPCS,GALILEO-FM3,2012-055A,EARTH,TEME,UTC,SGP4,2013-02-15T01:33:36.180576,1.70473445,4.46e-05,55.2799,236.0532,160.373,199.6229,0,U,38857,999,214,0.0001,3.6e-07,0,29600.403,844.706,23223.588,23220.948,PAYLOAD,LARGE,ESA,2012-10-12,FRGUI,,1440056,92187582,0 GALILEO-FM3,1 38857U 12055A   13046.06500209  .00000036  00000-0  10000-3 0  9993,2 38857 055.2799 236.0532 0000446 160.3730 199.6229 01.70473445  2145
2,GENERATED VIA SPACE-TRACK.ORG API,2013-02-18T12:43:09,18 SPCS,GALILEO-FM3,2012-055A,EARTH,TEME,UTC,SGP4,2013-02-17T09:52:21.017567,1.70473396,6.23e-05,55.2794,235.9879,164.7653,195.2336,0,U,38857,999,218,0.0001,4.7e-07,0,29600.408,844.706,23224.118,23220.429,PAYLOAD,LARGE,ESA,2012-10-12,FRGUI,,1441079,92207489,0 GALILEO-FM3,1 38857U 12055A   13048.41135437  .00000047  00000-0  10000-3 0  9993,2 38857 055.2794 235.9879 0000623 164.7653 195.2336 01.70473396  2181
